LEMUR-1                 
1 40044U 14033AL  26192.88323400  .00000888  00000+0  10759-3 0  9999
2 40044  97.7903 342.1444 0048047 358.8650   1.2448 14.85331099649134
LEMUR-2-GREENBERG       
1 42837U 17042N   26190.49536315  .00011532  00000+0  37497-3 0  9996
2 42837  97.3831  11.0293 0007135 283.6729  76.3718 15.32031511491802
LEMUR-2-ANDIS           
1 42838U 17042P   26193.46919441  .00012815  00000+0  36920-3 0  9997
2 42838  97.3674  14.2674 0007132 269.8003  90.2423 15.35849981492332
LEMUR-2-MONSON          
1 42839U 17042Q   26191.46928106  .00009600  00000+0  34677-3 0  9999
2 42839  97.4089  11.9359 0005156 266.7916  93.2733 15.28674858491721
LEMUR-2-FURIAUS         
1 42840U 17042R   26193.44556340  .00010642  00000+0  35675-3 0  9995
2 42840  97.3775  11.8672 0006239 340.6601  19.4403 15.31072029492076
LEMUR-2-PETERG          
1 42841U 17042S   26193.79443814  .00014951  00000+0  44268-3 0  9990
2 42841  97.3989  18.8865 0003152 230.6051 129.4913 15.34973234492364
LEMUR-2-DEMBITZ         
1 42842U 17042T   26193.46526970  .00009858  00000+0  33095-3 0  9996
2 42842  97.3821  14.9283 0005081 286.7424  73.3260 15.31053389492213
LEMUR-2-ZACHARY         
1 42845U 17042W   26193.47424905  .00031926  00000+0  52090-3 0  9992
2 42845  97.3575  25.6887 0002460 261.6834  98.4140 15.52533794493128
LEMUR-2-AMANDA-SVANTE   
1 48269U 21034B   26193.77964350  .00025852  00000+0  74134-3 0  9994
2 48269  97.5758 272.7671 0004530 149.3541 210.7967 15.35862163284986
LEMUR-2-SPECIAL-K       
1 48273U 21034F   26193.79103830  .00224827  00000+0  15540-2 0  9997
2 48273  97.5640 282.6731 0006210 216.3246 143.7597 15.73857408285705
LEMUR-2-EMBRIONOVIS     
1 56970U 23084AQ  26193.83808457  .00009780  00000+0  26205-3 0  9999
2 56970  97.6313 339.0377 0008097 215.5388 144.5318 15.38191732171629
LEMUR-2-DEVERILL-M-T    
1 57391U 23100F   26193.63361986  .00017703  00000+0  43148-3 0  9994
2 57391  99.4458 239.7654 0004673 307.8207  52.2609 15.41007808165166
LEMUR-2-BASS            
1 58259U 23174D   26193.75296222  .00012902  00000+0  28517-3 0  9991
2 58259  97.3851 278.8361 0007761  85.5175 274.6959 15.43942416149309
LEMUR-2-JK0903EM1407    
1 58336U 23174CJ  26193.79935618  .00021271  00000+0  34240-3 0  9999
2 58336  97.3925 285.0147 0003839  41.9807 318.1740 15.52985457149707
LEMUR-2-MJR092620       
1 58340U 23174CN  26193.80083080  .00014802  00000+0  30698-3 0  9998
2 58340  97.3982 284.3173 0005521  38.1554 322.0085 15.45807288149605
LEMUR-2-NIMBUS2000      
1 58899U 24022A   26193.54138311  .00014682  00000+0  35694-3 0  9996
2 58899  97.4088  43.8762 0009026  37.5068 322.6807 15.41041214136172
LEMUR-2-VALHALLA        
1 58900U 24022B   26193.54517831  .00010549  00000+0  26232-3 0  9993
2 58900  97.4084  43.8528 0009495  32.9596 327.2241 15.40435155136179
LEMUR-2-CAEL            
1 58903U 24022E   26193.53312518  .00011322  00000+0  26918-3 0  9991
2 58903  97.4069  44.8221 0007390  18.8003 341.3516 15.41796440136242
LEMUR-2-JOHNNYTRUONG    
1 59146U 24043BA  26193.84832772  .00035739  00000+0  40312-3 0  9999
2 59146  97.5384 347.1811 0004186 100.2015 259.9715 15.62433414132047
LEMUR-2-TOMATOKECHUP    
1 60471U 24149D   26193.77009299  .00007744  00000+0  21932-3 0  9993
2 60471  97.3802 275.8895 0003218 127.0790 233.0748 15.36552510106099
LEMUR-2-STELLA          
1 60533U 24149BT  26193.75801112  .00007469  00000+0  43460-3 0  9998
2 60533  97.6742 276.3329 0001212 111.1523 248.9837 15.12343479104360
LEMUR-2-MARHISYAM       
1 60536U 24149BW  26193.74796777  .00006770  00000+0  40079-3 0  9997
2 60536  97.6886 276.7972 0002737  73.8145 286.3386 15.11751485104349
LEMUR-2-AHMED-ASRAR     
1 60576U 24149DN  26193.75694365  .00007696  00000+0  43625-3 0  9990
2 60576  97.7013 278.9991 0000936 206.0418 154.0766 15.13277524104435
LEMUR-2-LLOYD           
1 60577U 24149DP  26193.76260729  .00006988  00000+0  43716-3 0  9999
2 60577  97.6753 274.9120 0004788  77.3680 282.8084 15.09725629104257
LEMUR-2-SQUIRRELCOMM    
1 60578U 24149DQ  26193.74751271  .00003392  00000+0  22806-3 0  9998
2 60578  97.6717 274.5815 0004210 339.5368  20.5690 15.07434376104255
LEMUR-2-SIERRINI        
1 60579U 24149DR  26193.77642762  .00008252  00000+0  49104-3 0  9996
2 60579  97.6846 276.4893 0006417  96.6845 263.5115 15.11482474104324
LEMUR-2-WILSON          
1 62694U 25009CP  26193.79276528  .00000827  00000+0  80295-4 0  9994
2 62694  97.7022 271.8086 0002205 338.0585  22.0541 14.95272934 81187
LEMUR-2-STAR-FOX        
1 62696U 25009CR  26193.79646390  .00004021  00000+0  30473-3 0  9996
2 62696  97.6917 275.2217 0002504  52.5903 307.5549 15.02825375 81405
LEMUR-2-ARIANNA         
1 62699U 25009CU  26193.79493253  .00004195  00000+0  31771-3 0  9991
2 62699  97.6856 274.9744 0002828  57.8921 302.2579 15.02826231 81405
LEMUR-2-ALISIA          
1 62706U 25009DB  26193.76782645  .00005448  00000+0  40766-3 0  9999
2 62706  97.6971 275.7673 0003987 136.3762 223.7778 15.03154652104007
